{"type": "FeatureCollection", "features": [ {"type": "Feature", "properties": {"norad_id": 43010, "name": "FENGYUN 3D", "group": "weather", "lat": 80.96990550482201, "lon": -135.25979480557956, "alt_km": 818.6483488138219, "timestamp": "2025-12-19T10:50:00.834658+00:00", "meta": {"OBJECT_NAME": "FENGYUN 3D", "OBJECT_ID": "2017-072A", "EPOCH": "2025-12-18T22:34:02.022816", "MEAN_MOTION": 14.19686065, "ECCENTRICITY": 0.0001257, "INCLINATION": 98.989, "RA_OF_ASC_NODE": 319.3432, "ARG_OF_PERICENTER": 162.5377, "MEAN_ANOMALY": 197.5842, "EPHEMERIS_TYPE": 0, "CLASSIFICATION_TYPE": "U", "NORAD_CAT_ID": 43010, "ELEMENT_SET_NO": 999, "REV_AT_EPOCH": 41941, "BSTAR": 3.59634e-05, "MEAN_MOTION_DOT": 3e-07, "MEAN_MOTION_DDOT": 0}, "tle": {"line1": "1 43010U 17072A   25352.94030119  .00000030  00000+0  35963-4 0  9991", "line2": "2 43010  98.9890 319.3432 0001257 162.5377 197.5842 14.19686065419415"}}, "geometry": {"type": "Point", "coordinates": [-135.25979480557956, 80.96990550482201]}}, {"type": "Feature", "properties": {"norad_id": 43013, "name": "NOAA 20 (JPSS-1)", "group": "weather", "lat": -58.157341610902144, "lon": 95.29834868515348, "alt_km": 835.4835280710968, "timestamp": "2025-12-19T10:50:00.834669+00:00", "meta": {"OBJECT_NAME": "NOAA 20 (JPSS-1)", "OBJECT_ID": "2017-073A", "EPOCH": "2025-12-18T21:52:07.216032", "MEAN_MOTION": 14.19527275, "ECCENTRICITY": 0.00021312, "INCLINATION": 98.7607, "RA_OF_ASC_NODE": 289.1406, "ARG_OF_PERICENTER": 78.3497, "MEAN_ANOMALY": 281.7919, "EPHEMERIS_TYPE": 0, "CLASSIFICATION_TYPE": "U", "NORAD_CAT_ID": 43013, "ELEMENT_SET_NO": 999, "REV_AT_EPOCH": 41889, "BSTAR": 4.1369449e-05, "MEAN_MOTION_DOT": 4.3e-07, "MEAN_MOTION_DDOT": 0}, "tle": {"line1": "1 43013U 17073A   25352.91119463  .00000043  00000+0  41369-4 0  9993", "line2": "2 43013  98.7607 289.1406 0002131  78.3497 281.7919 14.19527275418895"}}, "geometry": {"type": "Point", "coordinates": [95.29834868515348, -58.157341610902144]}}, {"type": "Feature", "properties": {"norad_id": 43226, "name": "GOES 17", "group": "weather", "lat": 0.4554638592712782, "lon": 161.25957292332538, "alt_km": 35792.581181132395, "timestamp": "2025-12-19T10:50:00.834682+00:00", "meta": {"OBJECT_NAME": "GOES 17", "OBJECT_ID": "2018-022A", "EPOCH": "2025-12-18T19:43:02.714880", "MEAN_MOTION": 1.00271088, "ECCENTRICITY": 0.00030872, "INCLINATION": 0.4725, "RA_OF_ASC_NODE": 89.1865, "ARG_OF_PERICENTER": 191.1682, "MEAN_ANOMALY": 13.5851, "EPHEMERIS_TYPE": 0, "CLASSIFICATION_TYPE": "U", "NORAD_CAT_ID": 43226, "ELEMENT_SET_NO": 999, "REV_AT_EPOCH": 2861, "BSTAR": 0, "MEAN_MOTION_DOT": -1.58e-06, "MEAN_MOTION_DDOT": 0}, "tle": {"line1": "1 43226U 18022A   25352.82155920 -.00000158  00000+0  00000+0 0  9992", "line2": "2 43226   0.4725  89.1865 0003087 191.1682  13.5851  1.00271088 28617"}}, "geometry": {"type": "Point", "coordinates": [161.25957292332538, 0.4554638592712782]}}, {"type": "Feature", "properties": {"norad_id": 43491, "name": "FENGYUN 2H", "group": "weather", "lat": -2.407693929324345, "lon": -29.84179750263707, "alt_km": 35785.26964965093, "timestamp": "2025-12-19T10:50:00.834696+00:00", "meta": {"OBJECT_NAME": "FENGYUN 2H", "OBJECT_ID": "2018-050A", "EPOCH": "2025-12-18T20:31:13.099872", "MEAN_MOTION": 1.00271343, "ECCENTRICITY": 0.00024052, "INCLINATION": 2.5661, "RA_OF_ASC_NODE": 81.2654, "ARG_OF_PERICENTER": 165.8531, "MEAN_ANOMALY": 227.7517, "EPHEMERIS_TYPE": 0, "CLASSIFICATION_TYPE": "U", "NORAD_CAT_ID": 43491, "ELEMENT_SET_NO": 999, "REV_AT_EPOCH": 2763, "BSTAR": 0, "MEAN_MOTION_DOT": -1.07e-06, "MEAN_MOTION_DDOT": 0}, "tle": {"line1": "1 43491U 18050A   25352.85501273 -.00000107  00000+0  00000+0 0  9990", "line2": "2 43491   2.5661  81.2654 0002405 165.8531 227.7517  1.00271343 27639"}}, "geometry": {"type": "Point", "coordinates": [-29.84179750263707, -2.407693929324345]}}, {"type": "Feature", "properties": {"norad_id": 43689, "name": "METOP-C", "group": "weather", "lat": 65.86821275351058, "lon": 31.150727437072018, "alt_km": 813.3562511483105, "timestamp": "2025-12-19T10:50:00.834708+00:00", "meta": {"OBJECT_NAME": "METOP-C", "OBJECT_ID": "2018-087A", "EPOCH": "2025-12-18T21:00:11.085984", "MEAN_MOTION": 14.21486691, "ECCENTRICITY": 9.475e-05, "INCLINATION": 98.6922, "RA_OF_ASC_NODE": 50.5506, "ARG_OF_PERICENTER": 28.5833, "MEAN_ANOMALY": 331.5397, "EPHEMERIS_TYPE": 0, "CLASSIFICATION_TYPE": "U", "NORAD_CAT_ID": 43689, "ELEMENT_SET_NO": 999, "REV_AT_EPOCH": 36921, "BSTAR": 7.1766616e-05, "MEAN_MOTION_DOT": 1.13e-06, "MEAN_MOTION_DDOT": 0}, "tle": {"line1": "1 43689U 18087A   25352.87512831  .00000113  00000+0  71767-4 0  9992", "line2": "2 43689  98.6922  50.5506 0000947  28.5833 331.5397 14.21486691369212"}}, "geometry": {"type": "Point", "coordinates": [31.150727437072018, 65.86821275351058]}}, {"type": "Feature", "properties": {"norad_id": 43823, "name": "GEO-KOMPSAT-2A", "group": "weather", "lat": -0.016331979558583995, "lon": 19.05133659093701, "alt_km": 35786.14502402764, "timestamp": "2025-12-19T10:50:00.834720+00:00", "meta": {"OBJECT_NAME": "GEO-KOMPSAT-2A", "OBJECT_ID": "2018-100A", "EPOCH": "2025-12-18T22:27:54.426240", "MEAN_MOTION": 1.00270137, "ECCENTRICITY": 5.612e-05, "INCLINATION": 0.0517, "RA_OF_ASC_NODE": 153.3209, "ARG_OF_PERICENTER": 304.2553, "MEAN_ANOMALY": 95.4608, "EPHEMERIS_TYPE": 0, "CLASSIFICATION_TYPE": "U", "NORAD_CAT_ID": 43823, "ELEMENT_SET_NO": 999, "REV_AT_EPOCH": 2582, "BSTAR": 0, "MEAN_MOTION_DOT": -3.19e-06, "MEAN_MOTION_DDOT": 0}, "tle": {"line1": "1 43823U 18100A   25352.93604660 -.00000319  00000+0  00000+0 0  9993", "line2": "2 43823   0.0517 153.3209 0000561 304.2553  95.4608  1.00270137 25822"}}, "geometry": {"type": "Point", "coordinates": [19.05133659093701, -0.016331979558583995]}}, {"type": "Feature", "properties": {"norad_id": 44387, "name": "METEOR-M2 2", "group": "weather", "lat": -29.11090187436185, "lon": 148.25845930267974, "alt_km": 816.4118107335089, "timestamp": "2025-12-19T10:50:00.834731+00:00", "meta": {"OBJECT_NAME": "METEOR-M2 2", "OBJECT_ID": "2019-038A", "EPOCH": "2025-12-18T22:03:05.950368", "MEAN_MOTION": 14.24295003, "ECCENTRICITY": 0.00015219, "INCLINATION": 98.8968, "RA_OF_ASC_NODE": 332.7233, "ARG_OF_PERICENTER": 135.8521, "MEAN_ANOMALY": 224.2779, "EPHEMERIS_TYPE": 0, "CLASSIFICATION_TYPE": "U", "NORAD_CAT_ID": 44387, "ELEMENT_SET_NO": 999, "REV_AT_EPOCH": 33563, "BSTAR": 0.00015933122, "MEAN_MOTION_DOT": 3.22e-06, "MEAN_MOTION_DDOT": 0}, "tle": {"line1": "1 44387U 19038A   25352.91881887  .00000322  00000+0  15933-3 0  9994", "line2": "2 44387  98.8968 332.7233 0001521 135.8521 224.2779 14.24295003335636"}}, "geometry": {"type": "Point", "coordinates": [148.25845930267974, -29.11090187436185]}}, {"type": "Feature", "properties": {"norad_id": 47719, "name": "ARKTIKA-M 1", "group": "weather", "lat": 45.43876847082291, "lon": -127.75499855258042, "alt_km": 23227.69300131475, "timestamp": "2025-12-19T10:50:00.834753+00:00", "meta": {"OBJECT_NAME": "ARKTIKA-M 1", "OBJECT_ID": "2021-016A", "EPOCH": "2025-12-18T01:24:39.137184", "MEAN_MOTION": 2.00630666, "ECCENTRICITY": 0.72069203, "INCLINATION": 63.1752, "RA_OF_ASC_NODE": 83.2669, "ARG_OF_PERICENTER": 269.1449, "MEAN_ANOMALY": 15.5709, "EPHEMERIS_TYPE": 0, "CLASSIFICATION_TYPE": "U", "NORAD_CAT_ID": 47719, "ELEMENT_SET_NO": 999, "REV_AT_EPOCH": 3515, "BSTAR": 0, "MEAN_MOTION_DOT": -1.26e-06, "MEAN_MOTION_DDOT": 0}, "tle": {"line1": "1 47719U 21016A   25352.05878631 -.00000126  00000+0  00000+0 0  9991", "line2": "2 47719  63.1752  83.2669 7206920 269.1449  15.5709  2.00630666 35159"}}, "geometry": {"type": "Point", "coordinates": [-127.75499855258042, 45.43876847082291]}}, {"type": "Feature", "properties": {"norad_id": 49008, "name": "FENGYUN 3E", "group": "weather", "lat": 60.8030133659311, "lon": -22.099440889193023, "alt_km": 820.256939378085, "timestamp": "2025-12-19T10:50:00.834766+00:00", "meta": {"OBJECT_NAME": "FENGYUN 3E", "OBJECT_ID": "2021-062A", "EPOCH": "2025-12-18T22:42:13.548096", "MEAN_MOTION": 14.19879954, "ECCENTRICITY": 6.612e-05, "INCLINATION": 98.747, "RA_OF_ASC_NODE": 353.3937, "ARG_OF_PERICENTER": 221.3156, "MEAN_ANOMALY": 138.797, "EPHEMERIS_TYPE": 0, "CLASSIFICATION_TYPE": "U", "NORAD_CAT_ID": 49008, "ELEMENT_SET_NO": 999, "REV_AT_EPOCH": 23100, "BSTAR": -6.8222627e-05, "MEAN_MOTION_DOT": -1.89e-06, "MEAN_MOTION_DDOT": 0}, "tle": {"line1": "1 49008U 21062A   25352.94599014 -.00000189  00000+0 -68223-4 0  9994", "line2": "2 49008  98.7470 353.3937 0000661 221.3156 138.7970 14.19879954231002"}}, "geometry": {"type": "Point", "coordinates": [-22.099440889193023, 60.8030133659311]}}, {"type": "Feature", "properties": {"norad_id": 51850, "name": "GOES 18", "group": "weather", "lat": 0.008399819122113857, "lon": 113.80249295073249, "alt_km": 35787.265400030825, "timestamp": "2025-12-19T10:50:00.834779+00:00", "meta": {"OBJECT_NAME": "GOES 18", "OBJECT_ID": "2022-021A", "EPOCH": "2025-12-18T22:54:59.332032", "MEAN_MOTION": 1.00272694, "ECCENTRICITY": 4.909e-05, "INCLINATION": 0.0072, "RA_OF_ASC_NODE": 80.2505, "ARG_OF_PERICENTER": 257.3702, "MEAN_ANOMALY": 316.9412, "EPHEMERIS_TYPE": 0, "CLASSIFICATION_TYPE": "U", "NORAD_CAT_ID": 51850, "ELEMENT_SET_NO": 999, "REV_AT_EPOCH": 478, "BSTAR": 0, "MEAN_MOTION_DOT": 1.21e-06, "MEAN_MOTION_DDOT": 0}, "tle": {"line1": "1 51850U 22021A   25352.95485338  .00000121  00000+0  00000+0 0  9990", "line2": "2 51850   0.0072  80.2505 0000490 257.3702 316.9412  1.00272694  4785"}}, "geometry": {"type": "Point", "coordinates": [113.80249295073249, 0.008399819122113857]}}]}